SL-16 R/B               
1 25400U 98043G   25350.86792964  .00000055  00000+0  41835-4 0  9995
2 25400  98.8130 298.7092 0008803 253.3409 106.6804 14.26026641427183
SL-16 R/B               
1 25407U 98045B   25351.00274367 -.00000037  00000+0  53080-5 0  9990
2 25407  71.0115 355.4616 0006694 170.2856 189.8398 14.16174544415394
ISS (ZARYA)             
1 25544U 98067A   25350.86195802  .00007581  00000+0  14251-3 0  9990
2 25544  51.6308 122.0659 0003178 259.3256 100.7375 15.49626059543496
CZ-4B R/B               
1 25732U 99025C   25350.98309142  .00000066  00000+0  52613-4 0  9997
2 25732  98.6763  32.1682 0036452 221.5304 204.3780 14.18244693376449
OKEAN-O                 
1 25860U 99039A   25350.71043759  .00000714  00000+0  10087-3 0  9992
2 25860  97.9600  46.3778 0000898 106.2256 253.9055 14.80168494422110
SL-16 R/B               
1 25861U 99039B   25350.70170911  .00000563  00000+0  78459-4 0  9993
2 25861  98.0123  44.8532 0015240 161.9355 198.2402 14.81592409424576
DELTA 2 R/B             
1 25876U 99041E   25350.96224164  .00001041  00000+0  20742-3 0  9993
2 25876  51.7615 271.5903 0504603 104.2144 261.5363 14.11412808351348
HELIOS 1B               
1 25977U 99064A   25350.97466648  .00001451  00000+0  16734-3 0  9997
2 25977  98.1758 245.7658 0001500  40.1077 320.0249 14.87300159672960
TERRA                   
1 25994U 99068A   25350.99188867  .00000442  00000+0  99486-4 0  9991
2 25994  97.9744  42.5202 0003586  86.1451  34.2468 14.60906801383009
SL-16 R/B               
1 26070U 00006B   25350.99667609 -.00000248  00000+0 -10142-3 0  9994
2 26070  71.0024 271.7069 0018567 302.9039  57.0297 14.15809323336857
TITAN 4B R/B            
1 26474U 00047B   25350.98568801  .00002856  00000+0  18659-3 0  9996
2 26474  67.9897 272.9298 0038634 139.4420 220.9619 15.08813517380433
ENVISAT                 
1 27386U 02009A   25350.86835795  .00000107  00000+0  48621-4 0  9995
2 27386  98.3605 301.5043 0001140  84.2698 334.1470 14.39000800247266
