CCSDS_OMM_VERS = 2.0
CREATION_DATE  = 
ORIGINATOR     = 

OBJECT_NAME    = SL-16 R/B
OBJECT_ID      = 1998-043G
CENTER_NAME    = EARTH
REF_FRAME      = TEME
TIME_SYSTEM    = UTC
MEAN_ELEMENT_THEORY = SGP/SGP4

EPOCH          = 2025-12-16T20:49:49.120896
MEAN_MOTION    = 14.26026641
ECCENTRICITY   = .00088036
INCLINATION    = 98.8130
RA_OF_ASC_NODE = 298.7092
ARG_OF_PERICENTER = 253.3409
MEAN_ANOMALY   = 106.6804

EPHEMERIS_TYPE = 0
CLASSIFICATION_TYPE = U
NORAD_CAT_ID   = 25400
ELEMENT_SET_NO = 999
REV_AT_EPOCH   = 42718
BSTAR          = .41834949E-4
MEAN_MOTION_DOT = .55E-6
MEAN_MOTION_DDOT = 0

CCSDS_OMM_VERS = 2.0
CREATION_DATE  = 
ORIGINATOR     = 

OBJECT_NAME    = SL-16 R/B
OBJECT_ID      = 1998-045B
CENTER_NAME    = EARTH
REF_FRAME      = TEME
TIME_SYSTEM    = UTC
MEAN_ELEMENT_THEORY = SGP/SGP4

EPOCH          = 2025-12-17T00:03:57.053088
MEAN_MOTION    = 14.16174544
ECCENTRICITY   = .00066943
INCLINATION    = 71.0115
RA_OF_ASC_NODE = 355.4616
ARG_OF_PERICENTER = 170.2856
MEAN_ANOMALY   = 189.8398

EPHEMERIS_TYPE = 0
CLASSIFICATION_TYPE = U
NORAD_CAT_ID   = 25407
ELEMENT_SET_NO = 999
REV_AT_EPOCH   = 41539
BSTAR          = .5308034E-5
MEAN_MOTION_DOT = -.37E-6
MEAN_MOTION_DDOT = 0

CCSDS_OMM_VERS = 2.0
CREATION_DATE  = 
ORIGINATOR     = 

OBJECT_NAME    = ISS (ZARYA)
OBJECT_ID      = 1998-067A
CENTER_NAME    = EARTH
REF_FRAME      = TEME
TIME_SYSTEM    = UTC
MEAN_ELEMENT_THEORY = SGP/SGP4

EPOCH          = 2025-12-16T20:41:13.172928
MEAN_MOTION    = 15.49626059
ECCENTRICITY   = .00031782
INCLINATION    = 51.6308
RA_OF_ASC_NODE = 122.0659
ARG_OF_PERICENTER = 259.3256
MEAN_ANOMALY   = 100.7375

EPHEMERIS_TYPE = 0
CLASSIFICATION_TYPE = U
NORAD_CAT_ID   = 25544
ELEMENT_SET_NO = 999
REV_AT_EPOCH   = 54349
BSTAR          = .14251236E-3
MEAN_MOTION_DOT = .7581E-4
MEAN_MOTION_DDOT = 0

CCSDS_OMM_VERS = 2.0
CREATION_DATE  = 
ORIGINATOR     = 

OBJECT_NAME    = CZ-4B R/B
OBJECT_ID      = 1999-025C
CENTER_NAME    = EARTH
REF_FRAME      = TEME
TIME_SYSTEM    = UTC
MEAN_ELEMENT_THEORY = SGP/SGP4

EPOCH          = 2025-12-16T23:35:39.098688
MEAN_MOTION    = 14.18244693
ECCENTRICITY   = .00364525
INCLINATION    = 98.6763
RA_OF_ASC_NODE = 32.1682
ARG_OF_PERICENTER = 221.5304
MEAN_ANOMALY   = 204.3780

EPHEMERIS_TYPE = 0
CLASSIFICATION_TYPE = U
NORAD_CAT_ID   = 25732
ELEMENT_SET_NO = 999
REV_AT_EPOCH   = 37644
BSTAR          = .52613293E-4
MEAN_MOTION_DOT = .66E-6
MEAN_MOTION_DDOT = 0

CCSDS_OMM_VERS = 2.0
CREATION_DATE  = 
ORIGINATOR     = 

OBJECT_NAME    = OKEAN-O
OBJECT_ID      = 1999-039A
CENTER_NAME    = EARTH
REF_FRAME      = TEME
TIME_SYSTEM    = UTC
MEAN_ELEMENT_THEORY = SGP/SGP4

EPOCH          = 2025-12-16T17:03:01.807776
MEAN_MOTION    = 14.80168494
ECCENTRICITY   = .00008984
INCLINATION    = 97.9600
RA_OF_ASC_NODE = 46.3778
ARG_OF_PERICENTER = 106.2256
MEAN_ANOMALY   = 253.9055

EPHEMERIS_TYPE = 0
CLASSIFICATION_TYPE = U
NORAD_CAT_ID   = 25860
ELEMENT_SET_NO = 999
REV_AT_EPOCH   = 42211
BSTAR          = .10087256E-3
MEAN_MOTION_DOT = .714E-5
MEAN_MOTION_DDOT = 0

CCSDS_OMM_VERS = 2.0
CREATION_DATE  = 
ORIGINATOR     = 

OBJECT_NAME    = SL-16 R/B
OBJECT_ID      = 1999-039B
CENTER_NAME    = EARTH
REF_FRAME      = TEME
TIME_SYSTEM    = UTC
MEAN_ELEMENT_THEORY = SGP/SGP4

EPOCH          = 2025-12-16T16:50:27.667104
MEAN_MOTION    = 14.81592409
ECCENTRICITY   = .00152401
INCLINATION    = 98.0123
RA_OF_ASC_NODE = 44.8532
ARG_OF_PERICENTER = 161.9355
MEAN_ANOMALY   = 198.2402

EPHEMERIS_TYPE = 0
CLASSIFICATION_TYPE = U
NORAD_CAT_ID   = 25861
ELEMENT_SET_NO = 999
REV_AT_EPOCH   = 42457
BSTAR          = .78458556E-4
MEAN_MOTION_DOT = .563E-5
MEAN_MOTION_DDOT = 0

CCSDS_OMM_VERS = 2.0
CREATION_DATE  = 
ORIGINATOR     = 

OBJECT_NAME    = DELTA 2 R/B
OBJECT_ID      = 1999-041E
CENTER_NAME    = EARTH
REF_FRAME      = TEME
TIME_SYSTEM    = UTC
MEAN_ELEMENT_THEORY = SGP/SGP4

EPOCH          = 2025-12-16T23:05:37.677696
MEAN_MOTION    = 14.11412808
ECCENTRICITY   = .05046035
INCLINATION    = 51.7615
RA_OF_ASC_NODE = 271.5903
ARG_OF_PERICENTER = 104.2144
MEAN_ANOMALY   = 261.5363

EPHEMERIS_TYPE = 0
CLASSIFICATION_TYPE = U
NORAD_CAT_ID   = 25876
ELEMENT_SET_NO = 999
REV_AT_EPOCH   = 35134
BSTAR          = .20741504E-3
MEAN_MOTION_DOT = .1041E-4
MEAN_MOTION_DDOT = 0

CCSDS_OMM_VERS = 2.0
CREATION_DATE  = 
ORIGINATOR     = 

OBJECT_NAME    = HELIOS 1B
OBJECT_ID      = 1999-064A
CENTER_NAME    = EARTH
REF_FRAME      = TEME
TIME_SYSTEM    = UTC
MEAN_ELEMENT_THEORY = SGP/SGP4

EPOCH          = 2025-12-16T23:23:31.183872
MEAN_MOTION    = 14.87300159
ECCENTRICITY   = .00015008
INCLINATION    = 98.1758
RA_OF_ASC_NODE = 245.7658
ARG_OF_PERICENTER = 40.1077
MEAN_ANOMALY   = 320.0249

EPHEMERIS_TYPE = 0
CLASSIFICATION_TYPE = U
NORAD_CAT_ID   = 25977
ELEMENT_SET_NO = 999
REV_AT_EPOCH   = 67296
BSTAR          = .16734041E-3
MEAN_MOTION_DOT = .1451E-4
MEAN_MOTION_DDOT = 0

CCSDS_OMM_VERS = 2.0
CREATION_DATE  = 
ORIGINATOR     = 

OBJECT_NAME    = TERRA
OBJECT_ID      = 1999-068A
CENTER_NAME    = EARTH
REF_FRAME      = TEME
TIME_SYSTEM    = UTC
MEAN_ELEMENT_THEORY = SGP/SGP4

EPOCH          = 2025-12-16T23:48:19.181088
MEAN_MOTION    = 14.60906801
ECCENTRICITY   = .00035862
INCLINATION    = 97.9744
RA_OF_ASC_NODE = 42.5202
ARG_OF_PERICENTER = 86.1451
MEAN_ANOMALY   = 34.2468

EPHEMERIS_TYPE = 0
CLASSIFICATION_TYPE = U
NORAD_CAT_ID   = 25994
ELEMENT_SET_NO = 999
REV_AT_EPOCH   = 38300
BSTAR          = .99485699E-4
MEAN_MOTION_DOT = .442E-5
MEAN_MOTION_DDOT = 0

CCSDS_OMM_VERS = 2.0
CREATION_DATE  = 
ORIGINATOR     = 

OBJECT_NAME    = SL-16 R/B
OBJECT_ID      = 2000-006B
CENTER_NAME    = EARTH
REF_FRAME      = TEME
TIME_SYSTEM    = UTC
MEAN_ELEMENT_THEORY = SGP/SGP4

EPOCH          = 2025-12-16T23:55:12.814176
MEAN_MOTION    = 14.15809323
ECCENTRICITY   = .00185675
INCLINATION    = 71.0024
RA_OF_ASC_NODE = 271.7069
ARG_OF_PERICENTER = 302.9039
MEAN_ANOMALY   = 57.0297

EPHEMERIS_TYPE = 0
CLASSIFICATION_TYPE = U
NORAD_CAT_ID   = 26070
ELEMENT_SET_NO = 999
REV_AT_EPOCH   = 33685
BSTAR          = -.10141869E-3
MEAN_MOTION_DOT = -.248E-5
MEAN_MOTION_DDOT = 0

CCSDS_OMM_VERS = 2.0
CREATION_DATE  = 
ORIGINATOR     = 

OBJECT_NAME    = TITAN 4B R/B
OBJECT_ID      = 2000-047B
CENTER_NAME    = EARTH
REF_FRAME      = TEME
TIME_SYSTEM    = UTC
MEAN_ELEMENT_THEORY = SGP/SGP4

EPOCH          = 2025-12-16T23:39:23.444064
MEAN_MOTION    = 15.08813517
ECCENTRICITY   = .0038634
INCLINATION    = 67.9897
RA_OF_ASC_NODE = 272.9298
ARG_OF_PERICENTER = 139.4420
MEAN_ANOMALY   = 220.9619

EPHEMERIS_TYPE = 0
CLASSIFICATION_TYPE = U
NORAD_CAT_ID   = 26474
ELEMENT_SET_NO = 999
REV_AT_EPOCH   = 38043
BSTAR          = .18658537E-3
MEAN_MOTION_DOT = .2856E-4
MEAN_MOTION_DDOT = 0

CCSDS_OMM_VERS = 2.0
CREATION_DATE  = 
ORIGINATOR     = 

OBJECT_NAME    = ENVISAT
OBJECT_ID      = 2002-009A
CENTER_NAME    = EARTH
REF_FRAME      = TEME
TIME_SYSTEM    = UTC
MEAN_ELEMENT_THEORY = SGP/SGP4

EPOCH          = 2025-12-16T20:50:26.126880
MEAN_MOTION    = 14.39000800
ECCENTRICITY   = .00011401
INCLINATION    = 98.3605
RA_OF_ASC_NODE = 301.5043
ARG_OF_PERICENTER = 84.2698
MEAN_ANOMALY   = 334.1470

EPHEMERIS_TYPE = 0
CLASSIFICATION_TYPE = U
NORAD_CAT_ID   = 27386
ELEMENT_SET_NO = 999
REV_AT_EPOCH   = 24726
BSTAR          = .48621428E-4
MEAN_MOTION_DOT = .107E-5
MEAN_MOTION_DDOT = 0

